[{"OBJECT_NAME":"ION SCV-015","OBJECT_ID":"2023-185H","EPOCH":"2026-03-09T22:36:51.209568","MEAN_MOTION":15.3163624,"ECCENTRICITY":0.00109059,"INCLINATION":97.5772,"RA_OF_ASC_NODE":155.3582,"ARG_OF_PERICENTER":92.3805,"MEAN_ANOMALY":267.8685,"EPHEMERIS_TYPE":0,"CLASSIFICATION_TYPE":"U","NORAD_CAT_ID":58469,"ELEMENT_SET_NO":999,"REV_AT_EPOCH":12588,"BSTAR":0.00030895808,"MEAN_MOTION_DOT":9.376e-5,"MEAN_MOTION_DDOT":0},{"OBJECT_NAME":"STARLINK-36457","OBJECT_ID":"2026-003R","EPOCH":"2026-03-09T18:00:44.233344","MEAN_MOTION":15.27585861,"ECCENTRICITY":0.0001805,"INCLINATION":43,"RA_OF_ASC_NODE":226.6801,"ARG_OF_PERICENTER":270.3176,"MEAN_ANOMALY":89.7469,"EPHEMERIS_TYPE":0,"CLASSIFICATION_TYPE":"U","NORAD_CAT_ID":67349,"ELEMENT_SET_NO":999,"REV_AT_EPOCH":883,"BSTAR":0.0012266172,"MEAN_MOTION_DOT":0.00033652,"MEAN_MOTION_DDOT":0}]
